start=new Date('2023-01-23T00:00:00.000Z').valueOf();
sats=[{"PERIAPSIS":"546.334","REV_AT_EPOCH":"9550","OBJECT_ID":"2021-038T","COUNTRY_CODE":"US","PERIOD":"95.592","RA_OF_ASC_NODE":"81.9208","RCS_SIZE":"LARGE","OBJECT_NAME":"STARLINK-2621","TLE_LINE1":"1 48370U 21038T   23021.87348993  .00005721  00000-0  40265-3 0  9990","OBJECT_TYPE":"PAYLOAD","TIME_SYSTEM":"UTC","DECAY_DATE":null,"APOAPSIS":"548.102","EPHEMERIS_TYPE":"0","SITE":"AFETR","MEAN_MOTION_DOT":"0.00005721","ELEMENT_SET_NO":"999","MEAN_ANOMALY":"280.1165","ECCENTRICITY":"0.00012760","GP_ID":"223583526","MEAN_MOTION":"15.06398546","FILE":"3757425","INCLINATION":"53.0539","EPOCH":"2023-01-21T20:57:49.529952","TLE_LINE2":"2 48370  53.0539  81.9208 0001276  79.9968 280.1165 15.06398546 95500","SEMIMAJOR_AXIS":"6925.353","MEAN_ELEMENT_THEORY":"SGP4","CENTER_NAME":"EARTH","MEAN_MOTION_DDOT":"0.0000000000000","CLASSIFICATION_TYPE":"U","NORAD_CAT_ID":"48370","REF_FRAME":"TEME","BSTAR":"0.00040265000000","ARG_OF_PERICENTER":"79.9968","LAUNCH_DATE":"2021-05-04"},{"FILE":"3758109","MEAN_ANOMALY":"274.3698","GP_ID":"223598773","ECCENTRICITY":"0.00015830","MEAN_MOTION":"15.06403459","ELEMENT_SET_NO":"999","CLASSIFICATION_TYPE":"U","NORAD_CAT_ID":"48371","BSTAR":"0.00034301000000","ARG_OF_PERICENTER":"85.7472","LAUNCH_DATE":"2021-05-04","REF_FRAME":"TEME","INCLINATION":"53.0533","TLE_LINE2":"2 48371  53.0533  78.9625 0001583  85.7472 274.3698 15.06403459 95607","SEMIMAJOR_AXIS":"6925.338","MEAN_ELEMENT_THEORY":"SGP4","EPOCH":"2023-01-22T12:47:54.702528","MEAN_MOTION_DDOT":"0.0000000000000","CENTER_NAME":"EARTH","RCS_SIZE":"LARGE","REV_AT_EPOCH":"9560","OBJECT_ID":"2021-038U","PERIAPSIS":"546.107","RA_OF_ASC_NODE":"78.9625","PERIOD":"95.592","COUNTRY_CODE":"US","DECAY_DATE":null,"TIME_SYSTEM":"UTC","OBJECT_TYPE":"PAYLOAD","EPHEMERIS_TYPE":"0","APOAPSIS":"548.299","MEAN_MOTION_DOT":"0.00004832","SITE":"AFETR","OBJECT_NAME":"STARLINK-2589","TLE_LINE1":"1 48371U 21038U   23022.53327202  .00004832  00000-0  34301-3 0  9991"},{"TLE_LINE1":"1 48372U 21038V   23022.52958360  .00004560  00000-0  32481-3 0  9991","OBJECT_NAME":"STARLINK-2572","DECAY_DATE":null,"TIME_SYSTEM":"UTC","OBJECT_TYPE":"PAYLOAD","SITE":"AFETR","MEAN_MOTION_DOT":"0.00004560","EPHEMERIS_TYPE":"0","APOAPSIS":"548.316","OBJECT_ID":"2021-038V","REV_AT_EPOCH":"9560","PERIAPSIS":"546.078","RA_OF_ASC_NODE":"78.9750","PERIOD":"95.592","COUNTRY_CODE":"US","RCS_SIZE":"LARGE","EPOCH":"2023-01-22T12:42:36.023040","TLE_LINE2":"2 48372  53.0551  78.9750 0001616  77.9959 282.1211 15.06405386 95606","SEMIMAJOR_AXIS":"6925.332","MEAN_ELEMENT_THEORY":"SGP4","INCLINATION":"53.0551","MEAN_MOTION_DDOT":"0.0000000000000","CENTER_NAME":"EARTH","CLASSIFICATION_TYPE":"U","NORAD_CAT_ID":"48372","LAUNCH_DATE":"2021-05-04","ARG_OF_PERICENTER":"77.9959","BSTAR":"0.00032481000000","REF_FRAME":"TEME","ECCENTRICITY":"0.00016160","GP_ID":"223590781","MEAN_MOTION":"15.06405386","MEAN_ANOMALY":"282.1211","ELEMENT_SET_NO":"999","FILE":"3757763"},{"COUNTRY_CODE":"US","PERIOD":"95.592","RA_OF_ASC_NODE":"79.2856","PERIAPSIS":"546.385","REV_AT_EPOCH":"9559","OBJECT_ID":"2021-038W","RCS_SIZE":"LARGE","OBJECT_NAME":"STARLINK-2609","TLE_LINE1":"1 48373U 21038W   23022.45955320  .00004390  00000-0  31338-3 0  9998","EPHEMERIS_TYPE":"0","APOAPSIS":"548.030","MEAN_MOTION_DOT":"0.00004390","SITE":"AFETR","TIME_SYSTEM":"UTC","OBJECT_TYPE":"PAYLOAD","DECAY_DATE":null,"ELEMENT_SET_NO":"999","MEAN_ANOMALY":"289.7038","ECCENTRICITY":"0.00011880","GP_ID":"223591021","MEAN_MOTION":"15.06401963","FILE":"3757763","CENTER_NAME":"EARTH","MEAN_MOTION_DDOT":"0.0000000000000","INCLINATION":"53.0536","TLE_LINE2":"2 48373  53.0536  79.2856 0001188  70.4079 289.7038 15.06401963 95591","SEMIMAJOR_AXIS":"6925.343","EPOCH":"2023-01-22T11:01:45.396480","MEAN_ELEMENT_THEORY":"SGP4","REF_FRAME":"TEME","BSTAR":"0.00031338000000","ARG_OF_PERICENTER":"70.4079","LAUNCH_DATE":"2021-05-04","NORAD_CAT_ID":"48373","CLASSIFICATION_TYPE":"U"},{"RCS_SIZE":"LARGE","COUNTRY_CODE":"US","RA_OF_ASC_NODE":"79.3101","PERIOD":"95.592","PERIAPSIS":"546.370","OBJECT_ID":"2021-038X","REV_AT_EPOCH":"9559","SITE":"AFETR","MEAN_MOTION_DOT":"0.00014347","EPHEMERIS_TYPE":"0","APOAPSIS":"548.049","TIME_SYSTEM":"UTC","OBJECT_TYPE":"PAYLOAD","DECAY_DATE":null,"TLE_LINE1":"1 48374U 21038X   23022.45491922  .00014347  00000-0  98004-3 0  9998","OBJECT_NAME":"STARLINK-2604","FILE":"3757762","ELEMENT_SET_NO":"999","ECCENTRICITY":"0.00012120","GP_ID":"223590811","MEAN_MOTION":"15.06401221","MEAN_ANOMALY":"277.5256","REF_FRAME":"TEME","LAUNCH_DATE":"2021-05-04","BSTAR":"0.00098004000000","ARG_OF_PERICENTER":"82.5871","CLASSIFICATION_TYPE":"U","NORAD_CAT_ID":"48374","CENTER_NAME":"EARTH","MEAN_MOTION_DDOT":"0.0000000000000","SEMIMAJOR_AXIS":"6925.345","TLE_LINE2":"2 48374  53.0527  79.3101 0001212  82.5871 277.5256 15.06401221 95592","MEAN_ELEMENT_THEORY":"SGP4","EPOCH":"2023-01-22T10:55:05.020608","INCLINATION":"53.0527"},{"FILE":"3757762","ELEMENT_SET_NO":"999","MEAN_ANOMALY":"293.9134","GP_ID":"223591051","ECCENTRICITY":"0.00018430","MEAN_MOTION":"15.06393730","REF_FRAME":"TEME","BSTAR":"0.00008963700000","ARG_OF_PERICENTER":"66.2048","LAUNCH_DATE":"2021-05-04","CLASSIFICATION_TYPE":"U","NORAD_CAT_ID":"48375","CENTER_NAME":"EARTH","MEAN_MOTION_DDOT":"0.0000000000000","INCLINATION":"53.0541","MEAN_ELEMENT_THEORY":"SGP4","TLE_LINE2":"2 48375  53.0541  79.3211 0001843  66.2048 293.9134 15.06393730 95598","SEMIMAJOR_AXIS":"6925.368","EPOCH":"2023-01-22T10:51:08.712288","RCS_SIZE":"LARGE","COUNTRY_CODE":"US","PERIOD":"95.593","RA_OF_ASC_NODE":"79.3211","PERIAPSIS":"545.956","REV_AT_EPOCH":"9559","OBJECT_ID":"2021-038Y","EPHEMERIS_TYPE":"0","APOAPSIS":"548.509","SITE":"AFETR","MEAN_MOTION_DOT":"0.00001054","OBJECT_TYPE":"PAYLOAD","TIME_SYSTEM":"UTC","DECAY_DATE":null,"OBJECT_NAME":"STARLINK-2603","TLE_LINE1":"1 48375U 21038Y   23022.45218417  .00001054  00000-0  89637-4 0  9999"},{"COUNTRY_CODE":"US","PERIOD":"95.592","RA_OF_ASC_NODE":"83.5059","PERIAPSIS":"546.104","REV_AT_EPOCH":"9545","OBJECT_ID":"2021-038Z","RCS_SIZE":"LARGE","OBJECT_NAME":"STARLINK-2610","TLE_LINE1":"1 48376U 21038Z   23021.51963545 -.00000857  00000-0 -38635-4 0  9999","EPHEMERIS_TYPE":"0","APOAPSIS":"548.288","SITE":"AFETR","MEAN_MOTION_DOT":"-0.00000857","TIME_SYSTEM":"UTC","OBJECT_TYPE":"PAYLOAD","DECAY_DATE":null,"ELEMENT_SET_NO":"999","MEAN_ANOMALY":"274.2813","ECCENTRICITY":"0.00015770","GP_ID":"223577961","MEAN_MOTION":"15.06405635","FILE":"3757170","CENTER_NAME":"EARTH","MEAN_MOTION_DDOT":"0.0000000000000","INCLINATION":"53.0541","TLE_LINE2":"2 48376  53.0541  83.5059 0001577  85.8356 274.2813 15.06405635 95458","SEMIMAJOR_AXIS":"6925.331","EPOCH":"2023-01-21T12:28:16.502880","MEAN_ELEMENT_THEORY":"SGP4","REF_FRAME":"TEME","BSTAR":"-0.00003863500000","ARG_OF_PERICENTER":"85.8356","LAUNCH_DATE":"2021-05-04","NORAD_CAT_ID":"48376","CLASSIFICATION_TYPE":"U"},{"NORAD_CAT_ID":"48377","CLASSIFICATION_TYPE":"U","ARG_OF_PERICENTER":"89.9797","BSTAR":"0.00125780000000","LAUNCH_DATE":"2021-05-04","REF_FRAME":"TEME","INCLINATION":"53.0541","SEMIMAJOR_AXIS":"6925.232","TLE_LINE2":"2 48377  53.0541  79.0520 0001177  89.9797 270.1327 15.06438011 95608","EPOCH":"2023-01-22T12:16:03.546624","MEAN_ELEMENT_THEORY":"SGP4","MEAN_MOTION_DDOT":"0.0000000000000","CENTER_NAME":"EARTH","FILE":"3757773","MEAN_ANOMALY":"270.1327","ECCENTRICITY":"0.00011770","GP_ID":"223591074","MEAN_MOTION":"15.06438011","ELEMENT_SET_NO":"999","DECAY_DATE":null,"OBJECT_TYPE":"PAYLOAD","TIME_SYSTEM":"UTC","APOAPSIS":"547.912","EPHEMERIS_TYPE":"0","SITE":"AFETR","MEAN_MOTION_DOT":"0.00018522","OBJECT_NAME":"STARLINK-2499","TLE_LINE1":"1 48377U 21038AA  23022.51115216  .00018522  00000-0  12578-2 0  9997","RCS_SIZE":"LARGE","REV_AT_EPOCH":"9560","OBJECT_ID":"2021-038AA","PERIAPSIS":"546.282","PERIOD":"95.590","RA_OF_ASC_NODE":"79.0520","COUNTRY_CODE":"US"},{"TLE_LINE1":"1 48378U 21038AB  23022.44112127  .00008988  00000-0  62131-3 0  9994","OBJECT_NAME":"STARLINK-2526","DECAY_DATE":null,"OBJECT_TYPE":"PAYLOAD","TIME_SYSTEM":"UTC","SITE":"AFETR","MEAN_MOTION_DOT":"0.00008988","EPHEMERIS_TYPE":"0","APOAPSIS":"548.271","OBJECT_ID":"2021-038AB","REV_AT_EPOCH":"9559","PERIAPSIS":"546.075","RA_OF_ASC_NODE":"79.3775","PERIOD":"95.591","COUNTRY_CODE":"US","RCS_SIZE":"LARGE","TLE_LINE2":"2 48378  53.0541  79.3775 0001586  84.2599 275.8571 15.06413206 95596","SEMIMAJOR_AXIS":"6925.308","MEAN_ELEMENT_THEORY":"SGP4","EPOCH":"2023-01-22T10:35:12.877728","INCLINATION":"53.0541","MEAN_MOTION_DDOT":"0.0000000000000","CENTER_NAME":"EARTH","CLASSIFICATION_TYPE":"U","NORAD_CAT_ID":"48378","LAUNCH_DATE":"2021-05-04","ARG_OF_PERICENTER":"84.2599","BSTAR":"0.00062131000000","REF_FRAME":"TEME","ECCENTRICITY":"0.00015860","GP_ID":"223590844","MEAN_MOTION":"15.06413206","MEAN_ANOMALY":"275.8571","ELEMENT_SET_NO":"999","FILE":"3757773"},{"OBJECT_ID":"2021-038AC","REV_AT_EPOCH":"9560","PERIAPSIS":"546.190","RA_OF_ASC_NODE":"79.0921","PERIOD":"95.591","COUNTRY_CODE":"US","RCS_SIZE":"MEDIUM","TLE_LINE1":"1 48379U 21038AC  23022.50378066  .00012664  00000-0  86713-3 0  9996","OBJECT_NAME":"STARLINK-2612","DECAY_DATE":null,"OBJECT_TYPE":"PAYLOAD","TIME_SYSTEM":"UTC","MEAN_MOTION_DOT":"0.00012664","SITE":"AFETR","EPHEMERIS_TYPE":"0","APOAPSIS":"548.131","GP_ID":"223590872","ECCENTRICITY":"0.00014010","MEAN_MOTION":"15.06417384","MEAN_ANOMALY":"274.1566","ELEMENT_SET_NO":"999","FILE":"3757766","SEMIMAJOR_AXIS":"6925.295","TLE_LINE2":"2 48379  53.0541  79.0921 0001401  85.9583 274.1566 15.06417384 95603","EPOCH":"2023-01-22T12:05:26.649024","MEAN_ELEMENT_THEORY":"SGP4","INCLINATION":"53.0541","MEAN_MOTION_DDOT":"0.0000000000000","CENTER_NAME":"EARTH","NORAD_CAT_ID":"48379","CLASSIFICATION_TYPE":"U","LAUNCH_DATE":"2021-05-04","BSTAR":"0.00086713000000","ARG_OF_PERICENTER":"85.9583","REF_FRAME":"TEME"}];
